{
  "type": "FeatureCollection",
  "features": [
    {
      "type": "Feature",
      "properties": {
        "norad_id": 41434,
        "name": "BEIDOU-2 IGSO-6 (C13)",
        "group": "beidou",
        "lat": 17.507129941938647,
        "lon": 50.511918522388065,
        "alt_km": 36003.51048416259,
        "timestamp": "2025-12-05T16:54:14.914396+00:00",
        "meta_object_name": "BEIDOU-2 IGSO-6 (C13)",
        "meta_object_id": "2016-021A",
        "meta_epoch": "2025-12-01T15:57:35.287200",
        "meta_mean_motion": 1.00256562,
        "meta_eccentricity": 0.00591323,
        "meta_inclination": 59.9483,
        "meta_ra_of_asc_node": 40.0119,
        "meta_arg_of_pericenter": 231.2834,
        "meta_mean_anomaly": 130.8807,
        "meta_ephemeris_type": 0,
        "meta_classification_type": "U",
        "meta_norad_cat_id": 41434,
        "meta_element_set_no": 999,
        "meta_rev_at_epoch": 3550,
        "meta_bstar": 0,
        "meta_mean_motion_dot": -1.55e-06,
        "meta_mean_motion_ddot": 0,
        "tle_line1": "1 41434U 16021A   25335.66499175 -.00000155  00000+0  00000+0 0  9991",
        "tle_line2": "2 41434  59.9483  40.0119 0059132 231.2834 130.8807  1.00256562 35501"
      },
      "geometry": {
        "type": "Point",
        "coordinates": [
          50.511918522388065,
          17.507129941938647
        ]
      }
    },
    {
      "type": "Feature",
      "properties": {
        "norad_id": 41586,
        "name": "BEIDOU-2 G7 (C03)",
        "group": "beidou",
        "lat": 0.36080614659179167,
        "lon": 78.79130809180887,
        "alt_km": 35767.966455376285,
        "timestamp": "2025-12-05T16:54:14.914408+00:00",
        "meta_object_name": "BEIDOU-2 G7 (C03)",
        "meta_object_id": "2016-037A",
        "meta_epoch": "2025-12-03T19:25:06.201984",
        "meta_mean_motion": 1.00271395,
        "meta_eccentricity": 0.00043865,
        "meta_inclination": 1.7336,
        "meta_ra_of_asc_node": 67.6984,
        "meta_arg_of_pericenter": 4.1798,
        "meta_mean_anomaly": 42.7772,
        "meta_ephemeris_type": 0,
        "meta_classification_type": "U",
        "meta_norad_cat_id": 41586,
        "meta_element_set_no": 999,
        "meta_rev_at_epoch": 493,
        "meta_bstar": 0,
        "meta_mean_motion_dot": -3.37e-06,
        "meta_mean_motion_ddot": 0,
        "tle_line1": "1 41586U 16037A   25337.80909956 -.00000337  00000+0  00000+0 0  9999",
        "tle_line2": "2 41586   1.7336  67.6984 0004386   4.1798  42.7772  1.00271395  4939"
      },
      "geometry": {
        "type": "Point",
        "coordinates": [
          78.79130809180887,
          0.36080614659179167
        ]
      }
    },
    {
      "type": "Feature",
      "properties": {
        "norad_id": 43001,
        "name": "BEIDOU-3 M1 (C19)",
        "group": "beidou",
        "lat": -56.04103181858703,
        "lon": -9.368376508743172,
        "alt_km": 21512.229704434132,
        "timestamp": "2025-12-05T16:54:14.914418+00:00",
        "meta_object_name": "BEIDOU-3 M1 (C19)",
        "meta_object_id": "2017-069A",
        "meta_epoch": "2025-12-03T03:27:53.485056",
        "meta_mean_motion": 1.86230745,
        "meta_eccentricity": 0.00088373,
        "meta_inclination": 56.5186,
        "meta_ra_of_asc_node": 69.5514,
        "meta_arg_of_pericenter": 303.7187,
        "meta_mean_anomaly": 56.1997,
        "meta_ephemeris_type": 0,
        "meta_classification_type": "U",
        "meta_norad_cat_id": 43001,
        "meta_element_set_no": 999,
        "meta_rev_at_epoch": 5495,
        "meta_bstar": 0,
        "meta_mean_motion_dot": -4.9e-07,
        "meta_mean_motion_ddot": 0,
        "tle_line1": "1 43001U 17069A   25337.14436904 -.00000049  00000+0  00000+0 0  9994",
        "tle_line2": "2 43001  56.5186  69.5514 0008837 303.7187  56.1997  1.86230745 54952"
      },
      "geometry": {
        "type": "Point",
        "coordinates": [
          -9.368376508743172,
          -56.04103181858703
        ]
      }
    },
    {
      "type": "Feature",
      "properties": {
        "norad_id": 43002,
        "name": "BEIDOU-3 M2 (C20)",
        "group": "beidou",
        "lat": -34.233386337229035,
        "lon": 42.79056786499211,
        "alt_km": 21515.441764479445,
        "timestamp": "2025-12-05T16:54:14.914428+00:00",
        "meta_object_name": "BEIDOU-3 M2 (C20)",
        "meta_object_id": "2017-069B",
        "meta_epoch": "2025-12-04T16:38:46.347936",
        "meta_mean_motion": 1.862306,
        "meta_eccentricity": 0.00062566,
        "meta_inclination": 56.5195,
        "meta_ra_of_asc_node": 69.536,
        "meta_arg_of_pericenter": 331.7329,
        "meta_mean_anomaly": 28.2399,
        "meta_ephemeris_type": 0,
        "meta_classification_type": "U",
        "meta_norad_cat_id": 43002,
        "meta_element_set_no": 999,
        "meta_rev_at_epoch": 5497,
        "meta_bstar": 0,
        "meta_mean_motion_dot": -4.9e-07,
        "meta_mean_motion_ddot": 0,
        "tle_line1": "1 43002U 17069B   25338.69359199 -.00000049  00000+0  00000+0 0  9996",
        "tle_line2": "2 43002  56.5195  69.5360 0006256 331.7329  28.2399  1.86230600 54972"
      },
      "geometry": {
        "type": "Point",
        "coordinates": [
          42.79056786499211,
          -34.233386337229035
        ]
      }
    },
    {
      "type": "Feature",
      "properties": {
        "norad_id": 43107,
        "name": "BEIDOU-3 M7 (C27)",
        "group": "beidou",
        "lat": 38.60705153332877,
        "lon": 94.31709231554389,
        "alt_km": 21519.495744446132,
        "timestamp": "2025-12-05T16:54:14.914439+00:00",
        "meta_object_name": "BEIDOU-3 M7 (C27)",
        "meta_object_id": "2018-003A",
        "meta_epoch": "2025-12-04T23:22:06.674304",
        "meta_mean_motion": 1.86232224,
        "meta_eccentricity": 0.00026381,
        "meta_inclination": 54.5036,
        "meta_ra_of_asc_node": 309.0851,
        "meta_arg_of_pericenter": 70.1822,
        "meta_mean_anomaly": 289.8293,
        "meta_ephemeris_type": 0,
        "meta_classification_type": "U",
        "meta_norad_cat_id": 43107,
        "meta_element_set_no": 999,
        "meta_rev_at_epoch": 5373,
        "meta_bstar": 0,
        "meta_mean_motion_dot": -7e-07,
        "meta_mean_motion_ddot": 0,
        "tle_line1": "1 43107U 18003A   25338.97368836 -.00000070  00000+0  00000+0 0  9994",
        "tle_line2": "2 43107  54.5036 309.0851 0002638  70.1822 289.8293  1.86232224 53734"
      },
      "geometry": {
        "type": "Point",
        "coordinates": [
          94.31709231554389,
          38.60705153332877
        ]
      }
    },
    {
      "type": "Feature",
      "properties": {
        "norad_id": 43108,
        "name": "BEIDOU-3 M8 (C28)",
        "group": "beidou",
        "lat": 10.721156703265267,
        "lon": 121.25606337873752,
        "alt_km": 21530.96787075952,
        "timestamp": "2025-12-05T16:54:14.914449+00:00",
        "meta_object_name": "BEIDOU-3 M8 (C28)",
        "meta_object_id": "2018-003B",
        "meta_epoch": "2025-12-03T20:16:15.436704",
        "meta_mean_motion": 1.86230755,
        "meta_eccentricity": 0.0004789,
        "meta_inclination": 54.4975,
        "meta_ra_of_asc_node": 309.1071,
        "meta_arg_of_pericenter": 274.2636,
        "meta_mean_anomaly": 85.6663,
        "meta_ephemeris_type": 0,
        "meta_classification_type": "U",
        "meta_norad_cat_id": 43108,
        "meta_element_set_no": 999,
        "meta_rev_at_epoch": 5372,
        "meta_bstar": 0,
        "meta_mean_motion_dot": -6.8e-07,
        "meta_mean_motion_ddot": 0,
        "tle_line1": "1 43108U 18003B   25337.84462311 -.00000068  00000+0  00000+0 0  9990",
        "tle_line2": "2 43108  54.4975 309.1071 0004789 274.2636  85.6663  1.86230755 53729"
      },
      "geometry": {
        "type": "Point",
        "coordinates": [
          121.25606337873752,
          10.721156703265267
        ]
      }
    },
    {
      "type": "Feature",
      "properties": {
        "norad_id": 43207,
        "name": "BEIDOU-3 M4 (C22)",
        "group": "beidou",
        "lat": -40.111940829520044,
        "lon": -76.57343150348913,
        "alt_km": 21542.17362355351,
        "timestamp": "2025-12-05T16:54:14.914459+00:00",
        "meta_object_name": "BEIDOU-3 M4 (C22)",
        "meta_object_id": "2018-018A",
        "meta_epoch": "2025-12-02T03:19:43.852800",
        "meta_mean_motion": 1.86230706,
        "meta_eccentricity": 0.00040749,
        "meta_inclination": 56.4768,
        "meta_ra_of_asc_node": 69.6557,
        "meta_arg_of_pericenter": 15.1369,
        "meta_mean_anomaly": 344.8773,
        "meta_ephemeris_type": 0,
        "meta_classification_type": "U",
        "meta_norad_cat_id": 43207,
        "meta_element_set_no": 999,
        "meta_rev_at_epoch": 5307,
        "meta_bstar": 0,
        "meta_mean_motion_dot": -4.5e-07,
        "meta_mean_motion_ddot": 0,
        "tle_line1": "1 43207U 18018A   25336.13870200 -.00000045  00000+0  00000+0 0  9992",
        "tle_line2": "2 43207  56.4768  69.6557 0004074  15.1369 344.8773  1.86230706 53076"
      },
      "geometry": {
        "type": "Point",
        "coordinates": [
          -76.57343150348913,
          -40.111940829520044
        ]
      }
    }
  ]
}